{
  "type": "FeatureCollection",
  "features": [
    {
      "type": "Feature",
      "properties": {
        "norad_id": 40730,
        "name": "GPS BIIF-10 (PRN 08)",
        "group": "gps-ops",
        "lat": -33.14211942102298,
        "lon": -113.24118178407049,
        "alt_km": 20078.204931883756,
        "timestamp": "2025-12-09T04:51:47.752109+00:00",
        "meta_object_name": "GPS BIIF-10 (PRN 08)",
        "meta_object_id": "2015-033A",
        "meta_epoch": "2025-12-08T18:17:13.153056",
        "meta_mean_motion": 2.00565724,
        "meta_eccentricity": 0.0110701,
        "meta_inclination": 54.1342,
        "meta_ra_of_asc_node": 274.9365,
        "meta_arg_of_pericenter": 26.7113,
        "meta_mean_anomaly": 333.8722,
        "meta_ephemeris_type": 0,
        "meta_classification_type": "U",
        "meta_norad_cat_id": 40730,
        "meta_element_set_no": 999,
        "meta_rev_at_epoch": 7617,
        "meta_bstar": 0,
        "meta_mean_motion_dot": -4.4e-07,
        "meta_mean_motion_ddot": 0,
        "tle_line1": "1 40730U 15033A   25342.76195779 -.00000044  00000+0  00000+0 0  9990",
        "tle_line2": "2 40730  54.1342 274.9365 0110701  26.7113 333.8722  2.00565724 76171"
      },
      "geometry": {
        "type": "Point",
        "coordinates": [
          -113.24118178407049,
          -33.14211942102298
        ]
      }
    },
    {
      "type": "Feature",
      "properties": {
        "norad_id": 41019,
        "name": "GPS BIIF-11 (PRN 10)",
        "group": "gps-ops",
        "lat": -56.46490315584531,
        "lon": -42.26375736931704,
        "alt_km": 19979.62178109714,
        "timestamp": "2025-12-09T04:51:47.752120+00:00",
        "meta_object_name": "GPS BIIF-11 (PRN 10)",
        "meta_object_id": "2015-062A",
        "meta_epoch": "2025-12-08T07:44:45.982752",
        "meta_mean_motion": 2.00566979,
        "meta_eccentricity": 0.01106922,
        "meta_inclination": 56.829,
        "meta_ra_of_asc_node": 38.1732,
        "meta_arg_of_pericenter": 229.8078,
        "meta_mean_anomaly": 129.2726,
        "meta_ephemeris_type": 0,
        "meta_classification_type": "U",
        "meta_norad_cat_id": 41019,
        "meta_element_set_no": 999,
        "meta_rev_at_epoch": 7400,
        "meta_bstar": 0,
        "meta_mean_motion_dot": -7.7e-07,
        "meta_mean_motion_ddot": 0,
        "tle_line1": "1 41019U 15062A   25342.32275443 -.00000077  00000+0  00000+0 0  9998",
        "tle_line2": "2 41019  56.8290  38.1732 0110692 229.8078 129.2726  2.00566979 74000"
      },
      "geometry": {
        "type": "Point",
        "coordinates": [
          -42.26375736931704,
          -56.46490315584531
        ]
      }
    },
    {
      "type": "Feature",
      "properties": {
        "norad_id": 41328,
        "name": "GPS BIIF-12 (PRN 32)",
        "group": "gps-ops",
        "lat": -27.72433196674042,
        "lon": -61.765164013665355,
        "alt_km": 19972.212689959153,
        "timestamp": "2025-12-09T04:51:47.752131+00:00",
        "meta_object_name": "GPS BIIF-12 (PRN 32)",
        "meta_object_id": "2016-007A",
        "meta_epoch": "2025-12-08T09:43:25.720320",
        "meta_mean_motion": 2.0056088,
        "meta_eccentricity": 0.0091947,
        "meta_inclination": 55.4038,
        "meta_ra_of_asc_node": 97.0291,
        "meta_arg_of_pericenter": 243.4665,
        "meta_mean_anomaly": 115.5721,
        "meta_ephemeris_type": 0,
        "meta_classification_type": "U",
        "meta_norad_cat_id": 41328,
        "meta_element_set_no": 999,
        "meta_rev_at_epoch": 7201,
        "meta_bstar": 0,
        "meta_mean_motion_dot": 1e-08,
        "meta_mean_motion_ddot": 0,
        "tle_line1": "1 41328U 16007A   25342.40515880  .00000001  00000+0  00000+0 0  9998",
        "tle_line2": "2 41328  55.4038  97.0291 0091947 243.4665 115.5721  2.00560880 72014"
      },
      "geometry": {
        "type": "Point",
        "coordinates": [
          -61.765164013665355,
          -27.72433196674042
        ]
      }
    },
    {
      "type": "Feature",
      "properties": {
        "norad_id": 43873,
        "name": "GPS BIII-1  (PRN 04)",
        "group": "gps-ops",
        "lat": 51.16867438069344,
        "lon": -138.68127614171806,
        "alt_km": 20169.04360969373,
        "timestamp": "2025-12-09T04:51:47.752152+00:00",
        "meta_object_name": "GPS BIII-1  (PRN 04)",
        "meta_object_id": "2018-109A",
        "meta_epoch": "2025-12-08T13:41:32.071776",
        "meta_mean_motion": 2.00553358,
        "meta_eccentricity": 0.003721,
        "meta_inclination": 55.5654,
        "meta_ra_of_asc_node": 99.7112,
        "meta_arg_of_pericenter": 194.8122,
        "meta_mean_anomaly": 178.3596,
        "meta_ephemeris_type": 0,
        "meta_classification_type": "U",
        "meta_norad_cat_id": 43873,
        "meta_element_set_no": 999,
        "meta_rev_at_epoch": 5125,
        "meta_bstar": 0,
        "meta_mean_motion_dot": 6e-08,
        "meta_mean_motion_ddot": 0,
        "tle_line1": "1 43873U 18109A   25342.57051009  .00000006  00000+0  00000+0 0  9991",
        "tle_line2": "2 43873  55.5654  99.7112 0037210 194.8122 178.3596  2.00553358 51259"
      },
      "geometry": {
        "type": "Point",
        "coordinates": [
          -138.68127614171806,
          51.16867438069344
        ]
      }
    },
    {
      "type": "Feature",
      "properties": {
        "norad_id": 44506,
        "name": "GPS BIII-2  (PRN 18)",
        "group": "gps-ops",
        "lat": 5.384069550292997,
        "lon": -17.628784717260245,
        "alt_km": 20331.41087635259,
        "timestamp": "2025-12-09T04:51:47.752175+00:00",
        "meta_object_name": "GPS BIII-2  (PRN 18)",
        "meta_object_id": "2019-056A",
        "meta_epoch": "2025-12-07T10:30:03.799008",
        "meta_mean_motion": 2.00565766,
        "meta_eccentricity": 0.00577762,
        "meta_inclination": 55.723,
        "meta_ra_of_asc_node": 338.7627,
        "meta_arg_of_pericenter": 198.4737,
        "meta_mean_anomaly": 333.4267,
        "meta_ephemeris_type": 0,
        "meta_classification_type": "U",
        "meta_norad_cat_id": 44506,
        "meta_element_set_no": 999,
        "meta_rev_at_epoch": 4622,
        "meta_bstar": 0,
        "meta_mean_motion_dot": -8.3e-07,
        "meta_mean_motion_ddot": 0,
        "tle_line1": "1 44506U 19056A   25341.43754397 -.00000083  00000+0  00000+0 0  9997",
        "tle_line2": "2 44506  55.7230 338.7627 0057776 198.4737 333.4267  2.00565766 46229"
      },
      "geometry": {
        "type": "Point",
        "coordinates": [
          -17.628784717260245,
          5.384069550292997
        ]
      }
    },
    {
      "type": "Feature",
      "properties": {
        "norad_id": 45854,
        "name": "GPS BIII-3  (PRN 23)",
        "group": "gps-ops",
        "lat": -38.92472868053918,
        "lon": 4.093313406148532,
        "alt_km": 20235.246080068056,
        "timestamp": "2025-12-09T04:51:47.752196+00:00",
        "meta_object_name": "GPS BIII-3  (PRN 23)",
        "meta_object_id": "2020-041A",
        "meta_epoch": "2025-12-08T06:52:29.701632",
        "meta_mean_motion": 2.00561767,
        "meta_eccentricity": 0.0060382,
        "meta_inclination": 56.544,
        "meta_ra_of_asc_node": 36.3588,
        "meta_arg_of_pericenter": 203.2609,
        "meta_mean_anomaly": 165.7518,
        "meta_ephemeris_type": 0,
        "meta_classification_type": "U",
        "meta_norad_cat_id": 45854,
        "meta_element_set_no": 999,
        "meta_rev_at_epoch": 4021,
        "meta_bstar": 0,
        "meta_mean_motion_dot": -7.9e-07,
        "meta_mean_motion_ddot": 0,
        "tle_line1": "1 45854U 20041A   25342.28645488 -.00000079  00000+0  00000+0 0  9999",
        "tle_line2": "2 45854  56.5440  36.3588 0060382 203.2609 165.7518  2.00561767 40210"
      },
      "geometry": {
        "type": "Point",
        "coordinates": [
          4.093313406148532,
          -38.92472868053918
        ]
      }
    },
    {
      "type": "Feature",
      "properties": {
        "norad_id": 46826,
        "name": "GPS BIII-4  (PRN 14)",
        "group": "gps-ops",
        "lat": -52.302927086229815,
        "lon": 148.50256911583654,
        "alt_km": 20152.771311051005,
        "timestamp": "2025-12-09T04:51:47.752212+00:00",
        "meta_object_name": "GPS BIII-4  (PRN 14)",
        "meta_object_id": "2020-078A",
        "meta_epoch": "2025-12-08T07:24:38.694816",
        "meta_mean_motion": 2.00566757,
        "meta_eccentricity": 0.0064564,
        "meta_inclination": 54.0162,
        "meta_ra_of_asc_node": 218.5209,
        "meta_arg_of_pericenter": 203.3462,
        "meta_mean_anomaly": 152.6425,
        "meta_ephemeris_type": 0,
        "meta_classification_type": "U",
        "meta_norad_cat_id": 46826,
        "meta_element_set_no": 999,
        "meta_rev_at_epoch": 3767,
        "meta_bstar": 0,
        "meta_mean_motion_dot": 2e-07,
        "meta_mean_motion_ddot": 0,
        "tle_line1": "1 46826U 20078A   25342.30878119  .00000020  00000+0  00000+0 0  9996",
        "tle_line2": "2 46826  54.0162 218.5209 0064564 203.3462 152.6425  2.00566757 37674"
      },
      "geometry": {
        "type": "Point",
        "coordinates": [
          148.50256911583654,
          -52.302927086229815
        ]
      }
    }
  ]
}